{
  "type": "FeatureCollection",
  "features": [
    {
      "type": "Feature",
      "properties": {
        "norad_id": 34121,
        "name": "COSMOS 2251 DEB",
        "group": "cosmos-2251-debris",
        "lat": 14.49574630958983,
        "lon": -100.06721837168396,
        "alt_km": 1015.6030851240548,
        "timestamp": "2025-12-20T07:33:51.206793+00:00",
        "meta_object_name": "COSMOS 2251 DEB",
        "meta_object_id": "1993-036KS",
        "meta_epoch": "2025-12-19T10:25:18.411168",
        "meta_mean_motion": 13.91951997,
        "meta_eccentricity": 0.0240674,
        "meta_inclination": 73.9924,
        "meta_ra_of_asc_node": 85.6981,
        "meta_arg_of_pericenter": 289.7383,
        "meta_mean_anomaly": 144.6962,
        "meta_ephemeris_type": 0,
        "meta_classification_type": "U",
        "meta_norad_cat_id": 34121,
        "meta_element_set_no": 999,
        "meta_rev_at_epoch": 85218,
        "meta_bstar": 0.00088007,
        "meta_mean_motion_dot": 1.397e-05,
        "meta_mean_motion_ddot": 0,
        "tle_line1": "1 34121U 93036KS  25353.43424087  .00001397  00000+0  88007-3 0  9997",
        "tle_line2": "2 34121  73.9924  85.6981 0240674 289.7383 144.6962 13.91951997852187"
      },
      "geometry": {
        "type": "Point",
        "coordinates": [
          -100.06721837168396,
          14.49574630958983
        ]
      }
    },
    {
      "type": "Feature",
      "properties": {
        "norad_id": 34122,
        "name": "COSMOS 2251 DEB",
        "group": "cosmos-2251-debris",
        "lat": -64.30047870567064,
        "lon": -39.442314340710865,
        "alt_km": 702.7486534580275,
        "timestamp": "2025-12-20T07:33:51.206803+00:00",
        "meta_object_name": "COSMOS 2251 DEB",
        "meta_object_id": "1993-036KT",
        "meta_epoch": "2025-12-19T17:59:46.157856",
        "meta_mean_motion": 14.65126194,
        "meta_eccentricity": 0.0084721,
        "meta_inclination": 74.0362,
        "meta_ra_of_asc_node": 105.1466,
        "meta_arg_of_pericenter": 0.0124,
        "meta_mean_anomaly": 149.8471,
        "meta_ephemeris_type": 0,
        "meta_classification_type": "U",
        "meta_norad_cat_id": 34122,
        "meta_element_set_no": 999,
        "meta_rev_at_epoch": 88787,
        "meta_bstar": 0.00069383656,
        "meta_mean_motion_dot": 3.9e-05,
        "meta_mean_motion_ddot": 0,
        "tle_line1": "1 34122U 93036KT  25353.74983979  .00003900  00000+0  69384-3 0  9991",
        "tle_line2": "2 34122  74.0362 105.1466 0084721   0.0124 149.8471 14.65126194887879"
      },
      "geometry": {
        "type": "Point",
        "coordinates": [
          -39.442314340710865,
          -64.30047870567064
        ]
      }
    },
    {
      "type": "Feature",
      "properties": {
        "norad_id": 34127,
        "name": "COSMOS 2251 DEB",
        "group": "cosmos-2251-debris",
        "lat": -29.51459956436237,
        "lon": 20.936609625617198,
        "alt_km": 806.2616784760366,
        "timestamp": "2025-12-20T07:33:51.206813+00:00",
        "meta_object_name": "COSMOS 2251 DEB",
        "meta_object_id": "1993-036KY",
        "meta_epoch": "2025-12-19T03:29:03.083712",
        "meta_mean_motion": 14.31601288,
        "meta_eccentricity": 0.01149346,
        "meta_inclination": 74.1792,
        "meta_ra_of_asc_node": 32.2872,
        "meta_arg_of_pericenter": 231.0589,
        "meta_mean_anomaly": 189.4593,
        "meta_ephemeris_type": 0,
        "meta_classification_type": "U",
        "meta_norad_cat_id": 34127,
        "meta_element_set_no": 999,
        "meta_rev_at_epoch": 86863,
        "meta_bstar": 0.0012183219,
        "meta_mean_motion_dot": 3.463e-05,
        "meta_mean_motion_ddot": 0,
        "tle_line1": "1 34127U 93036KY  25353.14517458  .00003463  00000+0  12183-2 0  9993",
        "tle_line2": "2 34127  74.1792  32.2872 0114934 231.0589 189.4593 14.31601288868637"
      },
      "geometry": {
        "type": "Point",
        "coordinates": [
          20.936609625617198,
          -29.51459956436237
        ]
      }
    },
    {
      "type": "Feature",
      "properties": {
        "norad_id": 34128,
        "name": "COSMOS 2251 DEB",
        "group": "cosmos-2251-debris",
        "lat": -73.54773220533394,
        "lon": -155.07782909764617,
        "alt_km": 577.8857323236643,
        "timestamp": "2025-12-20T07:33:51.206823+00:00",
        "meta_object_name": "COSMOS 2251 DEB",
        "meta_object_id": "1993-036KZ",
        "meta_epoch": "2025-12-19T22:40:48.288576",
        "meta_mean_motion": 15.01424091,
        "meta_eccentricity": 0.00260554,
        "meta_inclination": 73.9995,
        "meta_ra_of_asc_node": 282.0151,
        "meta_arg_of_pericenter": 32.713,
        "meta_mean_anomaly": 41.4106,
        "meta_ephemeris_type": 0,
        "meta_classification_type": "U",
        "meta_norad_cat_id": 34128,
        "meta_element_set_no": 999,
        "meta_rev_at_epoch": 89275,
        "meta_bstar": 0.00095818519,
        "meta_mean_motion_dot": 0.00012441,
        "meta_mean_motion_ddot": 0,
        "tle_line1": "1 34128U 93036KZ  25353.94500334  .00012441  00000+0  95819-3 0  9991",
        "tle_line2": "2 34128  73.9995 282.0151 0026055  32.7130  41.4106 15.01424091892759"
      },
      "geometry": {
        "type": "Point",
        "coordinates": [
          -155.07782909764617,
          -73.54773220533394
        ]
      }
    },
    {
      "type": "Feature",
      "properties": {
        "norad_id": 34129,
        "name": "COSMOS 2251 DEB",
        "group": "cosmos-2251-debris",
        "lat": -34.82932993106082,
        "lon": 156.19221064080702,
        "alt_km": 671.392998289155,
        "timestamp": "2025-12-20T07:33:51.206833+00:00",
        "meta_object_name": "COSMOS 2251 DEB",
        "meta_object_id": "1993-036LA",
        "meta_epoch": "2025-12-18T09:02:11.415264",
        "meta_mean_motion": 14.75834585,
        "meta_eccentricity": 0.00331651,
        "meta_inclination": 74.0348,
        "meta_ra_of_asc_node": 328.4951,
        "meta_arg_of_pericenter": 48.1918,
        "meta_mean_anomaly": 312.208,
        "meta_ephemeris_type": 0,
        "meta_classification_type": "U",
        "meta_norad_cat_id": 34129,
        "meta_element_set_no": 999,
        "meta_rev_at_epoch": 61381,
        "meta_bstar": 0.0011762776,
        "meta_mean_motion_dot": 8.117e-05,
        "meta_mean_motion_ddot": 0,
        "tle_line1": "1 34129U 93036LA  25352.37652101  .00008117  00000+0  11763-2 0  9998",
        "tle_line2": "2 34129  74.0348 328.4951 0033165  48.1918 312.2080 14.75834585613813"
      },
      "geometry": {
        "type": "Point",
        "coordinates": [
          156.19221064080702,
          -34.82932993106082
        ]
      }
    },
    {
      "type": "Feature",
      "properties": {
        "norad_id": 34136,
        "name": "COSMOS 2251 DEB",
        "group": "cosmos-2251-debris",
        "lat": 49.49277704677748,
        "lon": -171.90666146359573,
        "alt_km": 568.2210099346048,
        "timestamp": "2025-12-20T07:33:51.206843+00:00",
        "meta_object_name": "COSMOS 2251 DEB",
        "meta_object_id": "1993-036LH",
        "meta_epoch": "2025-12-19T20:25:23.205792",
        "meta_mean_motion": 14.80123226,
        "meta_eccentricity": 0.0085269,
        "meta_inclination": 74.02,
        "meta_ra_of_asc_node": 28.6074,
        "meta_arg_of_pericenter": 149.6513,
        "meta_mean_anomaly": 25.858,
        "meta_ephemeris_type": 0,
        "meta_classification_type": "U",
        "meta_norad_cat_id": 34136,
        "meta_element_set_no": 999,
        "meta_rev_at_epoch": 90115,
        "meta_bstar": 0.00025120644,
        "meta_mean_motion_dot": 1.991e-05,
        "meta_mean_motion_ddot": 0,
        "tle_line1": "1 34136U 93036LH  25353.85096303  .00001991  00000+0  25121-3 0  9993",
        "tle_line2": "2 34136  74.0200  28.6074 0085269 149.6513  25.8580 14.80123226901151"
      },
      "geometry": {
        "type": "Point",
        "coordinates": [
          -171.90666146359573,
          49.49277704677748
        ]
      }
    },
    {
      "type": "Feature",
      "properties": {
        "norad_id": 34139,
        "name": "COSMOS 2251 DEB",
        "group": "cosmos-2251-debris",
        "lat": -2.363075297334492,
        "lon": -121.05271676221165,
        "alt_km": 678.7651674562039,
        "timestamp": "2025-12-20T07:33:51.206854+00:00",
        "meta_object_name": "COSMOS 2251 DEB",
        "meta_object_id": "1993-036LL",
        "meta_epoch": "2025-12-18T16:11:13.051968",
        "meta_mean_motion": 14.59140035,
        "meta_eccentricity": 0.00425473,
        "meta_inclination": 74.0309,
        "meta_ra_of_asc_node": 242.7506,
        "meta_arg_of_pericenter": 312.858,
        "meta_mean_anomaly": 69.3893,
        "meta_ephemeris_type": 0,
        "meta_classification_type": "U",
        "meta_norad_cat_id": 34139,
        "meta_element_set_no": 999,
        "meta_rev_at_epoch": 88236,
        "meta_bstar": 0.00099611109,
        "meta_mean_motion_dot": 4.723e-05,
        "meta_mean_motion_ddot": 0,
        "tle_line1": "1 34139U 93036LL  25352.67445662  .00004723  00000+0  99611-3 0  9992",
        "tle_line2": "2 34139  74.0309 242.7506 0042547 312.8580  69.3893 14.59140035882367"
      },
      "geometry": {
        "type": "Point",
        "coordinates": [
          -121.05271676221165,
          -2.363075297334492
        ]
      }
    }
  ]
}